[{"OBJECT_NAME":"STARLINK-4810","OBJECT_ID":"2022-114BD","EPOCH":"2026-03-09T22:25:03.479520","MEAN_MOTION":15.08860246,"ECCENTRICITY":0.00012576,"INCLINATION":53.2176,"RA_OF_ASC_NODE":272.6922,"ARG_OF_PERICENTER":107.6981,"MEAN_ANOMALY":252.4148,"EPHEMERIS_TYPE":0,"CLASSIFICATION_TYPE":"U","NORAD_CAT_ID":53869,"ELEMENT_SET_NO":999,"REV_AT_EPOCH":19329,"BSTAR":-0.00021048966,"MEAN_MOTION_DOT":-3.638e-5,"MEAN_MOTION_DDOT":0},{"OBJECT_NAME":"ATLAS 5 CENTAUR R\/B","OBJECT_ID":"2015-058Q","EPOCH":"2026-03-09T09:58:43.980384","MEAN_MOTION":15.0421101,"ECCENTRICITY":0.01083886,"INCLINATION":64.7668,"RA_OF_ASC_NODE":96.662,"ARG_OF_PERICENTER":94.2862,"MEAN_ANOMALY":267.0651,"EPHEMERIS_TYPE":0,"CLASSIFICATION_TYPE":"U","NORAD_CAT_ID":40978,"ELEMENT_SET_NO":999,"REV_AT_EPOCH":10021,"BSTAR":0.00034608892,"MEAN_MOTION_DOT":5.305e-5,"MEAN_MOTION_DDOT":0}]
